[{"OBJECT_NAME":"LEMUR-2-PETERG","OBJECT_ID":"2017-042S","EPOCH":"2026-03-09T11:34:35.656032","MEAN_MOTION":15.29611459,"ECCENTRICITY":0.00037,"INCLINATION":97.398,"RA_OF_ASC_NODE":253.6596,"ARG_OF_PERICENTER":341.6938,"MEAN_ANOMALY":18.4169,"EPHEMERIS_TYPE":0,"CLASSIFICATION_TYPE":"U","NORAD_CAT_ID":42841,"ELEMENT_SET_NO":999,"REV_AT_EPOCH":47317,"BSTAR":0.00081076471,"MEAN_MOTION_DOT":0.0002324,"MEAN_MOTION_DDOT":0},{"OBJECT_NAME":"STARLINK-31884","OBJECT_ID":"2024-084Y","EPOCH":"2026-03-09T22:50:40.729056","MEAN_MOTION":15.27642117,"ECCENTRICITY":0.0001863,"INCLINATION":43.0063,"RA_OF_ASC_NODE":40.2991,"ARG_OF_PERICENTER":280.5107,"MEAN_ANOMALY":79.5535,"EPHEMERIS_TYPE":0,"CLASSIFICATION_TYPE":"U","NORAD_CAT_ID":59676,"ELEMENT_SET_NO":999,"REV_AT_EPOCH":10441,"BSTAR":-0.00055951916,"MEAN_MOTION_DOT":-0.00015656,"MEAN_MOTION_DDOT":0}]
